{
"type": "FeatureCollection",
"name": "Central ar North Kolkata r Pujo",
"features": [
{ "type": "Feature", "properties": { "Name": "Sealdah Railway Athletic Club", "description": "Sealdah Railway Athletic Club is one of the famous Sarbajanin Durga Puja in central Kolkata. It is one of the oldest Durga puja, established in 1947." }, "geometry": { "type": "Point", "coordinates": [ 88.37194, 22.5705774, 0.0 ] } },
{ "type": "Feature", "properties": { "Name": "College Square Sarbojanin Durgotsab Committee", "description": null }, "geometry": { "type": "Point", "coordinates": [ 88.362675, 22.573941, 0.0 ] } },
{ "type": "Feature", "properties": { "Name": "Muhammad Ali Park", "description": null }, "geometry": { "type": "Point", "coordinates": [ 88.3607369, 22.5771888, 0.0 ] } },
{ "type": "Feature", "properties": { "Name": "Santosh Mitra Square", "description": null }, "geometry": { "type": "Point", "coordinates": [ 88.3656532, 22.5660201, 0.0 ] } },
{ "type": "Feature", "properties": { "Name": "Manicktala Chaltabagan Lohapatty Durga Puja", "description": null }, "geometry": { "type": "Point", "coordinates": [ 88.3720013, 22.5847266, 0.0 ] } },
{ "type": "Feature", "properties": { "Name": "Brindaban Matri Mandir Durga Puja Committee in Kolkata", "description": null }, "geometry": { "type": "Point", "coordinates": [ 88.3732045, 22.5825241, 0.0 ] } },
{ "type": "Feature", "properties": { "Name": "Karbagan Sarbojanin Durgotsab Committee", "description": null }, "geometry": { "type": "Point", "coordinates": [ 88.3838115, 22.5953601, 0.0 ] } },
{ "type": "Feature", "properties": { "Name": "Telenga Bagan", "description": null }, "geometry": { "type": "Point", "coordinates": [ 88.3835636, 22.5940824, 0.0 ] } },
{ "type": "Feature", "properties": { "Name": "Nalin Sarkar Street", "description": null }, "geometry": { "type": "Point", "coordinates": [ 88.3731609, 22.5953765, 0.0 ] } },
{ "type": "Feature", "properties": { "Name": "Hatibagan Sarbojanin Durgotsav", "description": null }, "geometry": { "type": "Point", "coordinates": [ 88.3720004, 22.5943863, 0.0 ] } },
{ "type": "Feature", "properties": { "Name": "Hatibagan Nabinpally Sarbojanin Durgotsav", "description": null }, "geometry": { "type": "Point", "coordinates": [ 88.3743691, 22.5966688, 0.0 ] } },
{ "type": "Feature", "properties": { "Name": "Sikdar Bagan Sadharan Durgotsov", "description": null }, "geometry": { "type": "Point", "coordinates": [ 88.3723112, 22.5966234, 0.0 ] } },
{ "type": "Feature", "properties": { "Name": "Kashi Bose Lane Durga Puja Samity", "description": null }, "geometry": { "type": "Point", "coordinates": [ 88.3689174, 22.5908979, 0.0 ] } },
{ "type": "Feature", "properties": { "Name": "Hedua Park Durga Puja", "description": null }, "geometry": { "type": "Point", "coordinates": [ 88.369288, 22.5887151, 0.0 ] } },
{ "type": "Feature", "properties": { "Name": "Simla Byayam Samity", "description": null }, "geometry": { "type": "Point", "coordinates": [ 88.3650092, 22.5853694, 0.0 ] } },
{ "type": "Feature", "properties": { "Name": "Jagat Mukherjee Park", "description": null }, "geometry": { "type": "Point", "coordinates": [ 88.3660388, 22.5994903, 0.0 ] } },
{ "type": "Feature", "properties": { "Name": "Yubak Brinda DurgaPuja Mandop", "description": null }, "geometry": { "type": "Point", "coordinates": [ 88.3823154, 22.595916, 0.0 ] } },
{ "type": "Feature", "properties": { "Name": "Ahiritola Sarbojanin Durgotsab", "description": null }, "geometry": { "type": "Point", "coordinates": [ 88.3571768, 22.594859, 0.0 ] } },
{ "type": "Feature", "properties": { "Name": "AHIRITOLA JUBAK BRINDA SARBOJONIN SARODOTSAB", "description": null }, "geometry": { "type": "Point", "coordinates": [ 88.356777, 22.594889, 0.0 ] } },
{ "type": "Feature", "properties": { "Name": "Beniatola Sarbojonin Durgostsav", "description": null }, "geometry": { "type": "Point", "coordinates": [ 88.3611171, 22.595926, 0.0 ] } },
{ "type": "Feature", "properties": { "Name": "Kumartuli Park", "description": null }, "geometry": { "type": "Point", "coordinates": [ 88.3614663, 22.5989827, 0.0 ] } },
{ "type": "Feature", "properties": { "Name": "Hatkhola Gosaipara Sarbojonin Durgotsab", "description": null }, "geometry": { "type": "Point", "coordinates": [ 88.3591403, 22.5991411, 0.0 ] } },
{ "type": "Feature", "properties": { "Name": "Kumortuli Sarbojonin Durgotsab", "description": null }, "geometry": { "type": "Point", "coordinates": [ 88.3626053, 22.601233, 0.0 ] } },
{ "type": "Feature", "properties": { "Name": "Baghbazar Sarbojonin Durgotsav", "description": null }, "geometry": { "type": "Point", "coordinates": [ 88.3659778, 22.6046649, 0.0 ] } },
{ "type": "Feature", "properties": { "Name": "Baghbazar 7 Pally Sarbojanin Durgotsav", "description": null }, "geometry": { "type": "Point", "coordinates": [ 88.3713085, 22.6046937, 0.0 ] } },
{ "type": "Feature", "properties": { "Name": "Deshbandhu Park", "description": null }, "geometry": { "type": "Point", "coordinates": [ 88.3771053, 22.60001, 0.0 ] } },
{ "type": "Feature", "properties": { "Name": "Tala Barowari Durgotsab", "description": null }, "geometry": { "type": "Point", "coordinates": [ 88.3760867, 22.6071191, 0.0 ] } },
{ "type": "Feature", "properties": { "Name": "Tala Prattoy Durga Puja Art", "description": null }, "geometry": { "type": "Point", "coordinates": [ 88.382574, 22.6089319, 0.0 ] } },
{ "type": "Feature", "properties": { "Name": "Sree Bhumi Sporting Club", "description": null }, "geometry": { "type": "Point", "coordinates": [ 88.4029328, 22.5988987, 0.0 ] } },
{ "type": "Feature", "properties": { "Name": "Dum Dum Park Tarun Sangha", "description": null }, "geometry": { "type": "Point", "coordinates": [ 88.4137848, 22.6109224, 0.0 ] } },
{ "type": "Feature", "properties": { "Name": "Dum Dum Park Sarbojanin Durga Puja Samity", "description": null }, "geometry": { "type": "Point", "coordinates": [ 88.4164052, 22.6094363, 0.0 ] } },
{ "type": "Feature", "properties": { "Name": "Dum Dum Park Bharat Chakra", "description": null }, "geometry": { "type": "Point", "coordinates": [ 88.4143505, 22.61026, 0.0 ] } },
{ "type": "Feature", "properties": { "Name": "Lake Town Adhibasi Brindo Durga Puja Pandal", "description": null }, "geometry": { "type": "Point", "coordinates": [ 88.4039701, 22.6044508, 0.0 ] } }
]
}
