{
"type": "FeatureCollection",
"name": "Iconic Pujos",
"features": [
{ "type": "Feature", "properties": { "Name": "Ahiritola", "description": "Durga puja of Ahiritola" }, "geometry": { "type": "Point", "coordinates": [ 88.357521, 22.595062, 0.0 ] } },
{ "type": "Feature", "properties": { "Name": "College Square", "description": "Durga puja of College Square" }, "geometry": { "type": "Point", "coordinates": [ 88.364578, 22.574865, 0.0 ] } },
{ "type": "Feature", "properties": { "Name": "Anupama Housing Complex", "description": "Durga puja of Anupama Housing Complex" }, "geometry": { "type": "Point", "coordinates": [ 88.431786, 22.629421, 0.0 ] } },
{ "type": "Feature", "properties": { "Name": "Dum Dum Park Tarun Sangha", "description": "Durga puja of Dum Dum Park Tarun Sangha" }, "geometry": { "type": "Point", "coordinates": [ 88.413628, 22.610723, 0.0 ] } },
{ "type": "Feature", "properties": { "Name": "Dum Dum Park Bharat Chakra", "description": "Durga puja of Dum Dum Park Bharat Chakra" }, "geometry": { "type": "Point", "coordinates": [ 88.41433, 22.610662, 0.0 ] } },
{ "type": "Feature", "properties": { "Name": "Dum Dum Tarun Dal", "description": "Durga puja of Dum Dum Tarun Dal" }, "geometry": { "type": "Point", "coordinates": [ 88.418739, 22.611732, 0.0 ] } },
{ "type": "Feature", "properties": { "Name": "Dum Dum Park Yubak Brinda", "description": "Durga puja of Dum Dum Park Yubak Brinda" }, "geometry": { "type": "Point", "coordinates": [ 88.417732, 22.605478, 0.0 ] } },
{ "type": "Feature", "properties": { "Name": "Baghbazar Sarbojonin Durgotsab & Exhibition", "description": "Durga puja of Baghbazar Sarbojonin Durgotsab & Exhibition" }, "geometry": { "type": "Point", "coordinates": [ 88.366234, 22.604582, 0.0 ] } },
{ "type": "Feature", "properties": { "Name": "Joramandir", "description": "Durga puja of Joramandir" }, "geometry": { "type": "Point", "coordinates": [ 88.429512, 22.613289, 0.0 ] } },
{ "type": "Feature", "properties": { "Name": "Telengabagan", "description": "Durga puja of Telengabagan" }, "geometry": { "type": "Point", "coordinates": [ 88.385399, 22.594915, 0.0 ] } },
{ "type": "Feature", "properties": { "Name": "Karbagan Sarbojanin", "description": "Durga puja of Karbagan Sarbojanin" }, "geometry": { "type": "Point", "coordinates": [ 88.383873, 22.595152, 0.0 ] } },
{ "type": "Feature", "properties": { "Name": "Gouriberia", "description": "Durga puja of Gouriberia" }, "geometry": { "type": "Point", "coordinates": [ 88.379227, 22.594547, 0.0 ] } },
{ "type": "Feature", "properties": { "Name": "Kumartuli Park", "description": "Durga puja of Kumartuli Park" }, "geometry": { "type": "Point", "coordinates": [ 88.361366, 22.598995, 0.0 ] } },
{ "type": "Feature", "properties": { "Name": "Laketown Adhibasi Brinda", "description": "Durga puja of Laketown Adhibasi Brinda" }, "geometry": { "type": "Point", "coordinates": [ 88.403793, 22.605404, 0.0 ] } },
{ "type": "Feature", "properties": { "Name": "Laketown Netaji Sporting Club", "description": "Durga puja of Laketown Netaji Sporting Club" }, "geometry": { "type": "Point", "coordinates": [ 88.39962, 22.608088, 0.0 ] } },
{ "type": "Feature", "properties": { "Name": "Md. Ali Park", "description": "Durga puja of Md. Ali Park" }, "geometry": { "type": "Point", "coordinates": [ 88.360878, 22.577229, 0.0 ] } },
{ "type": "Feature", "properties": { "Name": "Mitali - Kankurgachi", "description": "Durga puja of Mitali - Kankurgachi" }, "geometry": { "type": "Point", "coordinates": [ 88.393974, 22.580042, 0.0 ] } },
{ "type": "Feature", "properties": { "Name": "Salt Lake CJ Block", "description": "Durga puja of Salt Lake CJ Block" }, "geometry": { "type": "Point", "coordinates": [ 88.423599, 22.58927, 0.0 ] } },
{ "type": "Feature", "properties": { "Name": "Salt Lake BJ Block", "description": "Durga puja of Salt Lake BJ Block" }, "geometry": { "type": "Point", "coordinates": [ 88.42672, 22.590794, 0.0 ] } },
{ "type": "Feature", "properties": { "Name": "Salt Lake FD Block", "description": "Durga puja of Salt Lake FD Block" }, "geometry": { "type": "Point", "coordinates": [ 88.412216, 22.583464, 0.0 ] } },
{ "type": "Feature", "properties": { "Name": "Salt Lake GD Block", "description": "Durga puja of Salt Lake GD Block" }, "geometry": { "type": "Point", "coordinates": [ 88.414162, 22.576777, 0.0 ] } },
{ "type": "Feature", "properties": { "Name": "Salt Lake HA Block", "description": "Durga puja of Salt Lake HA Block" }, "geometry": { "type": "Point", "coordinates": [ 88.412971, 22.57641, 0.0 ] } },
{ "type": "Feature", "properties": { "Name": "Salt Lake IA Block", "description": "Durga puja of Salt Lake IA Block" }, "geometry": { "type": "Point", "coordinates": [ 88.409523, 22.574305, 0.0 ] } },
{ "type": "Feature", "properties": { "Name": "Salt Lake Laboni", "description": "Durga puja of Salt Lake Laboni" }, "geometry": { "type": "Point", "coordinates": [ 88.406723, 22.582869, 0.0 ] } },
{ "type": "Feature", "properties": { "Name": "Santosh Mitra Square", "description": "Durga puja of Santosh Mitra Square" }, "geometry": { "type": "Point", "coordinates": [ 88.365593, 22.566067, 0.0 ] } },
{ "type": "Feature", "properties": { "Name": "Sealdah Railway Athletic Club", "description": "Durga puja of Sealdah Railway Athletic Club" }, "geometry": { "type": "Point", "coordinates": [ 88.371902, 22.570951, 0.0 ] } },
{ "type": "Feature", "properties": { "Name": "Sovabazar Beniatola", "description": "Durga puja of Sovabazar Beniatola" }, "geometry": { "type": "Point", "coordinates": [ 88.360909, 22.595915, 0.0 ] } },
{ "type": "Feature", "properties": { "Name": "Sreebhumi Sporting Club", "description": "Durga puja of Sreebhumi Sporting Club" }, "geometry": { "type": "Point", "coordinates": [ 88.402931, 22.598993, 0.0 ] } },
{ "type": "Feature", "properties": { "Name": "Tala Barowari", "description": "Durga puja of Tala Barowari" }, "geometry": { "type": "Point", "coordinates": [ 88.376022, 22.607212, 0.0 ] } },
{ "type": "Feature", "properties": { "Name": "Manicktala Chaltabagan Loha Patty", "description": "Durga puja of Manicktala Chaltabagan Loha Patty" }, "geometry": { "type": "Point", "coordinates": [ 88.372093, 22.58489, 0.0 ] } },
{ "type": "Feature", "properties": { "Name": "Pathuriaghata Pancher Pally", "description": "Durga puja of Pathuriaghata Pancher Pally" }, "geometry": { "type": "Point", "coordinates": [ 88.358368, 22.588566, 0.0 ] } },
{ "type": "Feature", "properties": { "Name": "Tala Palli", "description": "Durga puja of Tala Palli" }, "geometry": { "type": "Point", "coordinates": [ 88.374886, 22.608385, 0.0 ] } },
{ "type": "Feature", "properties": { "Name": "Ghas Bagan", "description": "Durga puja of Ghas Bagan" }, "geometry": { "type": "Point", "coordinates": [ 88.343468, 22.591923, 0.0 ] } },
{ "type": "Feature", "properties": { "Name": "Hatibagan Nabin Pally", "description": "Durga puja of Hatibagan Nabin Pally" }, "geometry": { "type": "Point", "coordinates": [ 88.373421, 22.595707, 0.0 ] } },
{ "type": "Feature", "properties": { "Name": "Nalin Sarkar Street Sarbojanin Durgotsab", "description": "Durga puja of Nalin Sarkar Street Sarbojanin Durgotsab" }, "geometry": { "type": "Point", "coordinates": [ 88.374634, 22.594627, 0.0 ] } },
{ "type": "Feature", "properties": { "Name": "Hatibagan Sarbojonin", "description": "Durga puja of Hatibagan Sarbojonin" }, "geometry": { "type": "Point", "coordinates": [ 88.371872, 22.594128, 0.0 ] } },
{ "type": "Feature", "properties": { "Name": "Olabibitala Sarbojanin", "description": "Durga puja of Olabibitala Sarbojanin" }, "geometry": { "type": "Point", "coordinates": [ 88.315788, 22.575529, 0.0 ] } },
{ "type": "Feature", "properties": { "Name": "Yuva Brinda", "description": "Durga puja of Yuva Brinda" }, "geometry": { "type": "Point", "coordinates": [ 88.381683, 22.595825, 0.0 ] } },
{ "type": "Feature", "properties": { "Name": "Kashi Bose Lane", "description": "Durga puja of Kashi Bose Lane" }, "geometry": { "type": "Point", "coordinates": [ 88.369476, 22.59222, 0.0 ] } },
{ "type": "Feature", "properties": { "Name": "Purbachal Sarbojanin", "description": "Durga puja of Purbachal Sarbojanin" }, "geometry": { "type": "Point", "coordinates": [ 88.407463, 22.573011, 0.0 ] } },
{ "type": "Feature", "properties": { "Name": "Sovabazar Rajbari", "description": "Durga puja of Sovabazar Rajbari" }, "geometry": { "type": "Point", "coordinates": [ 88.367233, 22.596798, 0.0 ] } },
{ "type": "Feature", "properties": { "Name": "37 Pally", "description": "Durga puja of 37 Pally" }, "geometry": { "type": "Point", "coordinates": [ 88.368446, 22.574528, 0.0 ] } },
{ "type": "Feature", "properties": { "Name": "Salt Lake AJ Block", "description": "Durga puja of Salt Lake AJ Block" }, "geometry": { "type": "Point", "coordinates": [ 88.428291, 22.592161, 0.0 ] } },
{ "type": "Feature", "properties": { "Name": "Laketown Nutan Palli Pradeep Sangha", "description": "Durga puja of Laketown Nutan Palli Pradeep Sangha" }, "geometry": { "type": "Point", "coordinates": [ 88.397507, 22.60372, 0.0 ] } },
{ "type": "Feature", "properties": { "Name": "Rammohan Sammilani", "description": "Durga puja of Rammohan Sammilani" }, "geometry": { "type": "Point", "coordinates": [ 88.375031, 22.581205, 0.0 ] } },
{ "type": "Feature", "properties": { "Name": "Durga Puja of 4 Ghosh Lane", "description": "Durga puja of Durga Puja of 4 Ghosh Lane" }, "geometry": { "type": "Point", "coordinates": [ 88.370789, 22.585108, 0.0 ] } },
{ "type": "Feature", "properties": { "Name": "Dakshineswar Dolpere Adi Sabojonin Durgapuja", "description": "Durga puja of Dakshineswar Dolpere Adi Sabojonin Durgapuja" }, "geometry": { "type": "Point", "coordinates": [ 88.364433, 22.659449, 0.0 ] } },
{ "type": "Feature", "properties": { "Name": "Milangarh Sarbojanin", "description": "Durga puja of Milangarh Sarbojanin" }, "geometry": { "type": "Point", "coordinates": [ 88.374054, 22.651651, 0.0 ] } },
{ "type": "Feature", "properties": { "Name": "Motijheel Sarbojanin", "description": "Durga puja of Motijheel Sarbojanin" }, "geometry": { "type": "Point", "coordinates": [ 88.410759, 22.62336, 0.0 ] } },
{ "type": "Feature", "properties": { "Name": "Beliaghata Nabamilan", "description": "Durga puja of Beliaghata Nabamilan" }, "geometry": { "type": "Point", "coordinates": [ 88.396255, 22.565413, 0.0 ] } },
{ "type": "Feature", "properties": { "Name": "Sandhani", "description": "Durga puja of Sandhani" }, "geometry": { "type": "Point", "coordinates": [ 88.396149, 22.564798, 0.0 ] } },
{ "type": "Feature", "properties": { "Name": "Simla Byam Samity", "description": "Durga puja of Simla Byam Samity" }, "geometry": { "type": "Point", "coordinates": [ 88.365097, 22.585285, 0.0 ] } },
{ "type": "Feature", "properties": { "Name": "United Club", "description": "Durga puja of United Club" }, "geometry": { "type": "Point", "coordinates": [ 88.391182, 22.591042, 0.0 ] } },
{ "type": "Feature", "properties": { "Name": "Kumartuli Preparation", "description": "Durga puja of Kumartuli Preparation" }, "geometry": { "type": "Point", "coordinates": [ 88.362396, 22.599609, 0.0 ] } },
{ "type": "Feature", "properties": { "Name": "Swapnar Bagan", "description": "Durga puja of Swapnar Bagan" }, "geometry": { "type": "Point", "coordinates": [ 88.395462, 22.579193, 0.0 ] } },
{ "type": "Feature", "properties": { "Name": "Lalabagan Yubak Brinda - Nabankur Sangha", "description": "Durga puja of Lalabagan Yubak Brinda - Nabankur Sangha" }, "geometry": { "type": "Point", "coordinates": [ 88.377106, 22.588247, 0.0 ] } },
{ "type": "Feature", "properties": { "Name": "Sammilita Lalabagan Sarbojanin", "description": "Durga puja of Sammilita Lalabagan Sarbojanin" }, "geometry": { "type": "Point", "coordinates": [ 88.376923, 22.587385, 0.0 ] } },
{ "type": "Feature", "properties": { "Name": "Salt Lake AE Block - Part 1", "description": "Durga puja of Salt Lake AE Block - Part 1" }, "geometry": { "type": "Point", "coordinates": [ 88.409409, 22.59856, 0.0 ] } },
{ "type": "Feature", "properties": { "Name": "Kolkata", "description": "Durga puja of Kolkata" }, "geometry": { "type": "Point", "coordinates": [ 88.350845, 22.56472, 0.0 ] } },
{ "type": "Feature", "properties": { "Name": "CIT Sarbojanin", "description": "Durga puja of CIT Sarbojanin" }, "geometry": { "type": "Point", "coordinates": [ 88.377861, 22.625994, 0.0 ] } },
{ "type": "Feature", "properties": { "Name": "Baghbazar Jagodharti", "description": "Durga puja of Baghbazar Jagodharti" }, "geometry": { "type": "Point", "coordinates": [ 88.371101, 22.603493, 0.0 ] } },
{ "type": "Feature", "properties": { "Name": "Beliaghata 33 No Palli", "description": "Durga puja of Beliaghata 33 No Palli" }, "geometry": { "type": "Point", "coordinates": [ 88.393852, 22.566563, 0.0 ] } },
{ "type": "Feature", "properties": { "Name": "Belgachia Sadharan Durgatsab", "description": "Durga puja of Belgachia Sadharan Durgatsab" }, "geometry": { "type": "Point", "coordinates": [ 88.383423, 22.609217, 0.0 ] } },
{ "type": "Feature", "properties": { "Name": "Kumartuli Sarbojanin", "description": "Durga puja of Kumartuli Sarbojanin" }, "geometry": { "type": "Point", "coordinates": [ 88.363274, 22.600859, 0.0 ] } },
{ "type": "Feature", "properties": { "Name": "Satadal", "description": "Durga puja of Satadal" }, "geometry": { "type": "Point", "coordinates": [ 88.367691, 22.595173, 0.0 ] } },
{ "type": "Feature", "properties": { "Name": "Salt Lake AE Block - Part 2", "description": "Durga puja of Salt Lake AE Block - Part 2" }, "geometry": { "type": "Point", "coordinates": [ 88.413353, 22.600937, 0.0 ] } },
{ "type": "Feature", "properties": { "Name": "Salt Lake BE Block - Part 2", "description": "Durga puja of Salt Lake BE Block - Part 2" }, "geometry": { "type": "Point", "coordinates": [ 88.412193, 22.596836, 0.0 ] } },
{ "type": "Feature", "properties": { "Name": "Salt Lake CK-CL Block", "description": "Durga puja of Salt Lake CK-CL Block" }, "geometry": { "type": "Point", "coordinates": [ 88.427864, 22.584633, 0.0 ] } },
{ "type": "Feature", "properties": { "Name": "Salt Lake DL block", "description": "Durga puja of Salt Lake DL block" }, "geometry": { "type": "Point", "coordinates": [ 88.425819, 22.582136, 0.0 ] } },
{ "type": "Feature", "properties": { "Name": "Karunamayee G Block", "description": "Durga puja of Karunamayee G Block" }, "geometry": { "type": "Point", "coordinates": [ 88.423172, 22.583117, 0.0 ] } },
{ "type": "Feature", "properties": { "Name": "Kamardanga Sitalatala - Howrah", "description": "Durga puja of Kamardanga Sitalatala - Howrah" }, "geometry": { "type": "Point", "coordinates": [ 88.302353, 22.596292, 0.0 ] } },
{ "type": "Feature", "properties": { "Name": "Arupara Milan Sangha - Howrah", "description": "Durga puja of Arupara Milan Sangha - Howrah" }, "geometry": { "type": "Point", "coordinates": [ 88.300949, 22.597847, 0.0 ] } },
{ "type": "Feature", "properties": { "Name": "Naba Baghbazar", "description": "Durga puja of Naba Baghbazar" }, "geometry": { "type": "Point", "coordinates": [ 88.370171, 22.605097, 0.0 ] } },
{ "type": "Feature", "properties": { "Name": "Bangur Avenue Protirodh Bahini", "description": "Durga puja of Bangur Avenue Protirodh Bahini" }, "geometry": { "type": "Point", "coordinates": [ 88.409248, 22.606899, 0.0 ] } },
{ "type": "Feature", "properties": { "Name": "Goabagan Sarbojanin", "description": "Durga puja of Goabagan Sarbojanin" }, "geometry": { "type": "Point", "coordinates": [ 88.372864, 22.59124, 0.0 ] } },
{ "type": "Feature", "properties": { "Name": "Hari Ghosh Street Sarbojonin", "description": "Durga puja of Hari Ghosh Street Sarbojonin" }, "geometry": { "type": "Point", "coordinates": [ 88.368286, 22.590546, 0.0 ] } },
{ "type": "Feature", "properties": { "Name": "Jagat Mukherjee Park", "description": "Durga puja of Jagat Mukherjee Park" }, "geometry": { "type": "Point", "coordinates": [ 88.36615, 22.599777, 0.0 ] } },
{ "type": "Feature", "properties": { "Name": "Baghbazar Pally", "description": "Durga puja of Baghbazar Pally" }, "geometry": { "type": "Point", "coordinates": [ 88.367363, 22.60281, 0.0 ] } },
{ "type": "Feature", "properties": { "Name": "Beadon Street Sarbojanin", "description": "Durga puja of Beadon Street Sarbojanin" }, "geometry": { "type": "Point", "coordinates": [ 88.368347, 22.589317, 0.0 ] } },
{ "type": "Feature", "properties": { "Name": "Sammilita Malapara", "description": "Durga puja of Sammilita Malapara" }, "geometry": { "type": "Point", "coordinates": [ 88.354752, 22.587664, 0.0 ] } },
{ "type": "Feature", "properties": { "Name": "Darpanarayan Tagore Street Pally Samity", "description": "Durga puja of Darpanarayan Tagore Street Pally Samity" }, "geometry": { "type": "Point", "coordinates": [ 88.354111, 22.587505, 0.0 ] } },
{ "type": "Feature", "properties": { "Name": "Haritaki Bagan", "description": "Durga puja of Haritaki Bagan" }, "geometry": { "type": "Point", "coordinates": [ 88.373466, 22.584158, 0.0 ] } },
{ "type": "Feature", "properties": { "Name": "Sovabazar Sarbojanin", "description": "Durga puja of Sovabazar Sarbojanin" }, "geometry": { "type": "Point", "coordinates": [ 88.361763, 22.597075, 0.0 ] } },
{ "type": "Feature", "properties": { "Name": "Hatkhola Gosain Para", "description": "Durga puja of Hatkhola Gosain Para" }, "geometry": { "type": "Point", "coordinates": [ 88.360771, 22.597885, 0.0 ] } },
{ "type": "Feature", "properties": { "Name": "Laketown Vivekananda Park", "description": "Durga puja of Laketown Vivekananda Park" }, "geometry": { "type": "Point", "coordinates": [ 88.402565, 22.610039, 0.0 ] } },
{ "type": "Feature", "properties": { "Name": "Jawpur Bayam Samiti", "description": "Durga puja of Jawpur Bayam Samiti" }, "geometry": { "type": "Point", "coordinates": [ 88.401138, 22.610584, 0.0 ] } },
{ "type": "Feature", "properties": { "Name": "Pragati Pally Adhibasi Brindra", "description": "Durga puja of Pragati Pally Adhibasi Brindra" }, "geometry": { "type": "Point", "coordinates": [ 88.400665, 22.609594, 0.0 ] } },
{ "type": "Feature", "properties": { "Name": "Kabiraj Bagan", "description": "Durga puja of Kabiraj Bagan" }, "geometry": { "type": "Point", "coordinates": [ 88.382729, 22.593855, 0.0 ] } },
{ "type": "Feature", "properties": { "Name": "Murari Pukur Bidhan Sangha", "description": "Durga puja of Murari Pukur Bidhan Sangha" }, "geometry": { "type": "Point", "coordinates": [ 88.383232, 22.592875, 0.0 ] } },
{ "type": "Feature", "properties": { "Name": "Salt Lake AD Block", "description": "Durga puja of Salt Lake AD Block" }, "geometry": { "type": "Point", "coordinates": [ 88.406448, 22.596855, 0.0 ] } },
{ "type": "Feature", "properties": { "Name": "Salt Lake AG Block", "description": "Durga puja of Salt Lake AG Block" }, "geometry": { "type": "Point", "coordinates": [ 88.423286, 22.598421, 0.0 ] } },
{ "type": "Feature", "properties": { "Name": "Sangrami", "description": "Durga puja of Sangrami" }, "geometry": { "type": "Point", "coordinates": [ 88.395699, 22.590536, 0.0 ] } },
{ "type": "Feature", "properties": { "Name": "Tarun Sporting Club", "description": "Durga puja of Tarun Sporting Club" }, "geometry": { "type": "Point", "coordinates": [ 88.365311, 22.586376, 0.0 ] } },
{ "type": "Feature", "properties": { "Name": "Shimla Vivekananda Sporting Club", "description": "Durga puja of Shimla Vivekananda Sporting Club" }, "geometry": { "type": "Point", "coordinates": [ 88.371811, 22.585722, 0.0 ] } },
{ "type": "Feature", "properties": { "Name": "Shurir Bagan", "description": "Durga puja of Shurir Bagan" }, "geometry": { "type": "Point", "coordinates": [ 88.387566, 22.594559, 0.0 ] } },
{ "type": "Feature", "properties": { "Name": "Salt Lake CA Block", "description": "Durga puja of Salt Lake CA Block" }, "geometry": { "type": "Point", "coordinates": [ 88.399689, 22.587496, 0.0 ] } },
{ "type": "Feature", "properties": { "Name": "Salt Lake BG Block", "description": "Durga puja of Salt Lake BG Block" }, "geometry": { "type": "Point", "coordinates": [ 88.423119, 22.595449, 0.0 ] } },
{ "type": "Feature", "properties": { "Name": "Salt Lake AH Block", "description": "Durga puja of Salt Lake AH Block" }, "geometry": { "type": "Point", "coordinates": [ 88.427269, 22.594231, 0.0 ] } },
{ "type": "Feature", "properties": { "Name": "Park Circus", "description": "Durga puja of Park Circus" }, "geometry": { "type": "Point", "coordinates": [ 88.36776, 22.543079, 0.0 ] } },
{ "type": "Feature", "properties": { "Name": "Maddox Square", "description": "Durga puja of Maddox Square" }, "geometry": { "type": "Point", "coordinates": [ 88.35463, 22.526407, 0.0 ] } },
{ "type": "Feature", "properties": { "Name": "Deshapriya Park", "description": "Durga puja of Deshapriya Park" }, "geometry": { "type": "Point", "coordinates": [ 88.353249, 22.518661, 0.0 ] } },
{ "type": "Feature", "properties": { "Name": "41 Pally", "description": "Durga puja of 41 Pally" }, "geometry": { "type": "Point", "coordinates": [ 88.338509, 22.48303, 0.0 ] } },
{ "type": "Feature", "properties": { "Name": "Ajeya Sanghati", "description": "Durga puja of Ajeya Sanghati" }, "geometry": { "type": "Point", "coordinates": [ 88.337418, 22.480553, 0.0 ] } },
{ "type": "Feature", "properties": { "Name": "Vivekananda Sporting Club", "description": "Durga puja of Vivekananda Sporting Club" }, "geometry": { "type": "Point", "coordinates": [ 88.338493, 22.476332, 0.0 ] } },
{ "type": "Feature", "properties": { "Name": "Vivekananda Park Athletic Club", "description": "Durga puja of Vivekananda Park Athletic Club" }, "geometry": { "type": "Point", "coordinates": [ 88.336967, 22.481016, 0.0 ] } },
{ "type": "Feature", "properties": { "Name": "Pally Unnayan Samity Paschim Putiary", "description": "Durga puja of Pally Unnayan Samity Paschim Putiary" }, "geometry": { "type": "Point", "coordinates": [ 88.342247, 22.478121, 0.0 ] } },
{ "type": "Feature", "properties": { "Name": "Naskarpara Pally Unnayan Samity - Haridevpur", "description": "Durga puja of Naskarpara Pally Unnayan Samity - Haridevpur" }, "geometry": { "type": "Point", "coordinates": [ 88.339539, 22.480223, 0.0 ] } },
{ "type": "Feature", "properties": { "Name": "Barisha Club, Srishti Sahajatri", "description": "Durga puja of Barisha Club, Srishti Sahajatri" }, "geometry": { "type": "Point", "coordinates": [ 88.312866, 22.48151, 0.0 ] } },
{ "type": "Feature", "properties": { "Name": "Barisha Janakalyan Sangha", "description": "Durga puja of Barisha Janakalyan Sangha" }, "geometry": { "type": "Point", "coordinates": [ 88.312744, 22.485041, 0.0 ] } },
{ "type": "Feature", "properties": { "Name": "Sabeda Bagan", "description": "Durga puja of Sabeda Bagan" }, "geometry": { "type": "Point", "coordinates": [ 88.316666, 22.488293, 0.0 ] } },
{ "type": "Feature", "properties": { "Name": "Behala Club", "description": "Durga puja of Behala Club" }, "geometry": { "type": "Point", "coordinates": [ 88.314308, 22.505381, 0.0 ] } },
{ "type": "Feature", "properties": { "Name": "Debdaru Fatak", "description": "Durga puja of Debdaru Fatak" }, "geometry": { "type": "Point", "coordinates": [ 88.317474, 22.502714, 0.0 ] } },
{ "type": "Feature", "properties": { "Name": "Behala Sree Sangha", "description": "Durga puja of Behala Sree Sangha" }, "geometry": { "type": "Point", "coordinates": [ 88.320183, 22.497669, 0.0 ] } },
{ "type": "Feature", "properties": { "Name": "Behala Youngmen's Association", "description": "Durga puja of Behala Youngmen's Association" }, "geometry": { "type": "Point", "coordinates": [ 88.325104, 22.507067, 0.0 ] } },
{ "type": "Feature", "properties": { "Name": "Behala Adarsha Pally", "description": "Durga puja of Behala Adarsha Pally" }, "geometry": { "type": "Point", "coordinates": [ 88.327629, 22.499989, 0.0 ] } },
{ "type": "Feature", "properties": { "Name": "Badamtala Ashar Sangha", "description": "Durga puja of Badamtala Ashar Sangha" }, "geometry": { "type": "Point", "coordinates": [ 88.343994, 22.517864, 0.0 ] } },
{ "type": "Feature", "properties": { "Name": "Behala Nutan Dal", "description": "Durga puja of Behala Nutan Dal" }, "geometry": { "type": "Point", "coordinates": [ 88.319565, 22.501228, 0.0 ] } },
{ "type": "Feature", "properties": { "Name": "Bosepukur Talbagan", "description": "Durga puja of Bosepukur Talbagan" }, "geometry": { "type": "Point", "coordinates": [ 88.38533, 22.517492, 0.0 ] } },
{ "type": "Feature", "properties": { "Name": "Rajdanga Tribarna Sangha", "description": "Durga puja of Rajdanga Tribarna Sangha" }, "geometry": { "type": "Point", "coordinates": [ 88.389534, 22.515083, 0.0 ] } },
{ "type": "Feature", "properties": { "Name": "Bosepukur Sitala Mandir", "description": "Durga puja of Bosepukur Sitala Mandir" }, "geometry": { "type": "Point", "coordinates": [ 88.388023, 22.516581, 0.0 ] } },
{ "type": "Feature", "properties": { "Name": "Singhi Park", "description": "Durga puja of Singhi Park" }, "geometry": { "type": "Point", "coordinates": [ 88.362991, 22.521238, 0.0 ] } },
{ "type": "Feature", "properties": { "Name": "Ekdalia Evergreen Club", "description": "Durga puja of Ekdalia Evergreen Club" }, "geometry": { "type": "Point", "coordinates": [ 88.366447, 22.521111, 0.0 ] } },
{ "type": "Feature", "properties": { "Name": "Jodhpur Park", "description": "Durga puja of Jodhpur Park" }, "geometry": { "type": "Point", "coordinates": [ 88.365028, 22.504702, 0.0 ] } },
{ "type": "Feature", "properties": { "Name": "Selimpur Pally", "description": "Durga puja of Selimpur Pally" }, "geometry": { "type": "Point", "coordinates": [ 88.368149, 22.505087, 0.0 ] } },
{ "type": "Feature", "properties": { "Name": "Santoshpur Lake Pally", "description": "Durga puja of Santoshpur Lake Pally" }, "geometry": { "type": "Point", "coordinates": [ 88.382774, 22.491508, 0.0 ] } },
{ "type": "Feature", "properties": { "Name": "Mudiali Club", "description": "Durga puja of Mudiali Club" }, "geometry": { "type": "Point", "coordinates": [ 88.346725, 22.510118, 0.0 ] } },
{ "type": "Feature", "properties": { "Name": "Shibmandir Sarbojanin Durgotsab", "description": "Durga puja of Shibmandir Sarbojanin Durgotsab" }, "geometry": { "type": "Point", "coordinates": [ 88.349388, 22.510822, 0.0 ] } },
{ "type": "Feature", "properties": { "Name": "Naktala Udayan Sangha", "description": "Durga puja of Naktala Udayan Sangha" }, "geometry": { "type": "Point", "coordinates": [ 88.36705, 22.474174, 0.0 ] } },
{ "type": "Feature", "properties": { "Name": "Rajdanga Naba Uday Sangha", "description": "Durga puja of Rajdanga Naba Uday Sangha" }, "geometry": { "type": "Point", "coordinates": [ 88.390442, 22.515675, 0.0 ] } },
{ "type": "Feature", "properties": { "Name": "Suruchi Sangha", "description": "Durga puja of Suruchi Sangha" }, "geometry": { "type": "Point", "coordinates": [ 88.333664, 22.509346, 0.0 ] } },
{ "type": "Feature", "properties": { "Name": "Tridhara Sammilani", "description": "Durga puja of Tridhara Sammilani" }, "geometry": { "type": "Point", "coordinates": [ 88.355377, 22.519238, 0.0 ] } },
{ "type": "Feature", "properties": { "Name": "Pratapaditya Road Tricone Park", "description": "Durga puja of Pratapaditya Road Tricone Park" }, "geometry": { "type": "Point", "coordinates": [ 88.344658, 22.513498, 0.0 ] } },
{ "type": "Feature", "properties": { "Name": "Sanghasree", "description": "Durga puja of Sanghasree" }, "geometry": { "type": "Point", "coordinates": [ 88.345795, 22.521303, 0.0 ] } },
{ "type": "Feature", "properties": { "Name": "25 Pally", "description": "Durga puja of 25 Pally" }, "geometry": { "type": "Point", "coordinates": [ 88.326538, 22.539078, 0.0 ] } },
{ "type": "Feature", "properties": { "Name": "Mukul Sangha", "description": "Durga puja of Mukul Sangha" }, "geometry": { "type": "Point", "coordinates": [ 88.313705, 22.503359, 0.0 ] } },
{ "type": "Feature", "properties": { "Name": "66 Palli", "description": "Durga puja of 66 Palli" }, "geometry": { "type": "Point", "coordinates": [ 88.342644, 22.518148, 0.0 ] } },
{ "type": "Feature", "properties": { "Name": "Hindustan Park", "description": "Durga puja of Hindustan Park" }, "geometry": { "type": "Point", "coordinates": [ 88.362648, 22.517731, 0.0 ] } },
{ "type": "Feature", "properties": { "Name": "Adi Lake Palli", "description": "Durga puja of Adi Lake Palli" }, "geometry": { "type": "Point", "coordinates": [ 88.34938, 22.514532, 0.0 ] } },
{ "type": "Feature", "properties": { "Name": "Azadgarh", "description": "Durga puja of Azadgarh" }, "geometry": { "type": "Point", "coordinates": [ 88.356171, 22.484604, 0.0 ] } },
{ "type": "Feature", "properties": { "Name": "Bharat Mata", "description": "Durga puja of Bharat Mata" }, "geometry": { "type": "Point", "coordinates": [ 88.36248, 22.488014, 0.0 ] } },
{ "type": "Feature", "properties": { "Name": "Golfgreen Phase 2", "description": "Durga puja of Golfgreen Phase 2" }, "geometry": { "type": "Point", "coordinates": [ 88.360809, 22.492256, 0.0 ] } },
{ "type": "Feature", "properties": { "Name": "Santoshpur Trikon Park", "description": "Durga puja of Santoshpur Trikon Park" }, "geometry": { "type": "Point", "coordinates": [ 88.378448, 22.492996, 0.0 ] } },
{ "type": "Feature", "properties": { "Name": "Yuba Sangha Club", "description": "Durga puja of Yuba Sangha Club" }, "geometry": { "type": "Point", "coordinates": [ 88.36499, 22.485378, 0.0 ] } },
{ "type": "Feature", "properties": { "Name": "Netaji Nagar Sarbojanin", "description": "Durga puja of Netaji Nagar Sarbojanin" }, "geometry": { "type": "Point", "coordinates": [ 88.357719, 22.480721, 0.0 ] } },
{ "type": "Feature", "properties": { "Name": "Netaji Jatiya Sebadal", "description": "Durga puja of Netaji Jatiya Sebadal" }, "geometry": { "type": "Point", "coordinates": [ 88.358231, 22.484991, 0.0 ] } },
{ "type": "Feature", "properties": { "Name": "New Alipore Children's Park", "description": "Durga puja of New Alipore Children's Park" }, "geometry": { "type": "Point", "coordinates": [ 88.337021, 22.507145, 0.0 ] } },
{ "type": "Feature", "properties": { "Name": "Pally Mangal Samity", "description": "Durga puja of Pally Mangal Samity" }, "geometry": { "type": "Point", "coordinates": [ 88.36396, 22.503017, 0.0 ] } },
{ "type": "Feature", "properties": { "Name": "Poddar Nagar Park", "description": "Durga puja of Poddar Nagar Park" }, "geometry": { "type": "Point", "coordinates": [ 88.364433, 22.500887, 0.0 ] } },
{ "type": "Feature", "properties": { "Name": "Chakraberia Sarbojanin", "description": "Durga puja of Chakraberia Sarbojanin" }, "geometry": { "type": "Point", "coordinates": [ 88.351891, 22.533646, 0.0 ] } },
{ "type": "Feature", "properties": { "Name": "Babubagan Club", "description": "Durga puja of Babubagan Club" }, "geometry": { "type": "Point", "coordinates": [ 88.368515, 22.507988, 0.0 ] } },
{ "type": "Feature", "properties": { "Name": "Barisha Tarun Tirtha", "description": "Durga puja of Barisha Tarun Tirtha" }, "geometry": { "type": "Point", "coordinates": [ 88.31823, 22.476515, 0.0 ] } },
{ "type": "Feature", "properties": { "Name": "74 Pally", "description": "Durga puja of 74 Pally" }, "geometry": { "type": "Point", "coordinates": [ 88.325729, 22.539438, 0.0 ] } },
{ "type": "Feature", "properties": { "Name": "Kabitirtha", "description": "Durga puja of Kabitirtha" }, "geometry": { "type": "Point", "coordinates": [ 88.323288, 22.541048, 0.0 ] } },
{ "type": "Feature", "properties": { "Name": "Pally Saradiya Club", "description": "Durga puja of Pally Saradiya Club" }, "geometry": { "type": "Point", "coordinates": [ 88.321709, 22.543179, 0.0 ] } },
{ "type": "Feature", "properties": { "Name": "Behala 29 Palli", "description": "Durga puja of Behala 29 Palli" }, "geometry": { "type": "Point", "coordinates": [ 88.322426, 22.507343, 0.0 ] } },
{ "type": "Feature", "properties": { "Name": "Baishnabghata Patuli Upanagari", "description": "Durga puja of Baishnabghata Patuli Upanagari" }, "geometry": { "type": "Point", "coordinates": [ 88.380142, 22.471201, 0.0 ] } },
{ "type": "Feature", "properties": { "Name": "Kendua Shanti Sangha - Patuli", "description": "Durga puja of Kendua Shanti Sangha - Patuli" }, "geometry": { "type": "Point", "coordinates": [ 88.380997, 22.47193, 0.0 ] } },
{ "type": "Feature", "properties": { "Name": "Falguni Sangha", "description": "Durga puja of Falguni Sangha" }, "geometry": { "type": "Point", "coordinates": [ 88.365829, 22.521793, 0.0 ] } },
{ "type": "Feature", "properties": { "Name": "Chetla Agrani Club", "description": "Durga puja of Chetla Agrani Club" }, "geometry": { "type": "Point", "coordinates": [ 88.337151, 22.516447, 0.0 ] } },
{ "type": "Feature", "properties": { "Name": "Chelta Sarbasadharaner Club", "description": "Durga puja of Chelta Sarbasadharaner Club" }, "geometry": { "type": "Point", "coordinates": [ 88.339928, 22.517433, 0.0 ] } },
{ "type": "Feature", "properties": { "Name": "Selimpur Naskarpara", "description": "Durga puja of Selimpur Naskarpara" }, "geometry": { "type": "Point", "coordinates": [ 88.37606, 22.504808, 0.0 ] } },
{ "type": "Feature", "properties": { "Name": "Bengal United Club", "description": "Durga puja of Bengal United Club" }, "geometry": { "type": "Point", "coordinates": [ 88.348518, 22.512428, 0.0 ] } },
{ "type": "Feature", "properties": { "Name": "Chandranath Chatterjee Street", "description": "Durga puja of Chandranath Chatterjee Street" }, "geometry": { "type": "Point", "coordinates": [ 88.345848, 22.52669, 0.0 ] } },
{ "type": "Feature", "properties": { "Name": "Greenwood Nook", "description": "Durga puja of Greenwood Nook" }, "geometry": { "type": "Point", "coordinates": [ 88.399902, 22.50556, 0.0 ] } },
{ "type": "Feature", "properties": { "Name": "Sebak Sangha", "description": "Durga puja of Sebak Sangha" }, "geometry": { "type": "Point", "coordinates": [ 88.347542, 22.511377, 0.0 ] } },
{ "type": "Feature", "properties": { "Name": "Dilip Smriti Sangha", "description": "Durga puja of Dilip Smriti Sangha" }, "geometry": { "type": "Point", "coordinates": [ 88.34494, 22.517796, 0.0 ] } },
{ "type": "Feature", "properties": { "Name": "Lake Youth Corner", "description": "Durga puja of Lake Youth Corner" }, "geometry": { "type": "Point", "coordinates": [ 88.347328, 22.510754, 0.0 ] } },
{ "type": "Feature", "properties": { "Name": "Ekush Pally Sarbojanin Durgotsab", "description": "Durga puja of Ekush Pally Sarbojanin Durgotsab" }, "geometry": { "type": "Point", "coordinates": [ 88.369217, 22.529325, 0.0 ] } },
{ "type": "Feature", "properties": { "Name": "Acharya Prafulla Sangha - Behala", "description": "Durga puja of Acharya Prafulla Sangha - Behala" }, "geometry": { "type": "Point", "coordinates": [ 88.313461, 22.49065, 0.0 ] } },
{ "type": "Feature", "properties": { "Name": "Adi Ballygunge", "description": "Durga puja of Adi Ballygunge" }, "geometry": { "type": "Point", "coordinates": [ 88.37265, 22.529564, 0.0 ] } },
{ "type": "Feature", "properties": { "Name": "Ballygunge Cultural Association", "description": "Durga puja of Ballygunge Cultural Association" }, "geometry": { "type": "Point", "coordinates": [ 88.355705, 22.516363, 0.0 ] } },
{ "type": "Feature", "properties": { "Name": "Barisha Player's Corner", "description": "Durga puja of Barisha Player's Corner" }, "geometry": { "type": "Point", "coordinates": [ 88.312614, 22.486588, 0.0 ] } },
{ "type": "Feature", "properties": { "Name": "Barisha Sabuj Sathi Club", "description": "Durga puja of Barisha Sabuj Sathi Club" }, "geometry": { "type": "Point", "coordinates": [ 88.310753, 22.47821, 0.0 ] } },
{ "type": "Feature", "properties": { "Name": "Barisha Tapoban", "description": "Durga puja of Barisha Tapoban" }, "geometry": { "type": "Point", "coordinates": [ 88.310432, 22.475655, 0.0 ] } },
{ "type": "Feature", "properties": { "Name": "Behala Arcadia Sarbojanin", "description": "Durga puja of Behala Arcadia Sarbojanin" }, "geometry": { "type": "Point", "coordinates": [ 88.315163, 22.4942, 0.0 ] } },
{ "type": "Feature", "properties": { "Name": "Durgabari", "description": "Durga puja of Durgabari" }, "geometry": { "type": "Point", "coordinates": [ 88.315765, 22.499889, 0.0 ] } },
{ "type": "Feature", "properties": { "Name": "Ganbani Sangha", "description": "Durga puja of Ganbani Sangha" }, "geometry": { "type": "Point", "coordinates": [ 88.327805, 22.488768, 0.0 ] } },
{ "type": "Feature", "properties": { "Name": "Samaj Sebi Sangha", "description": "Durga puja of Samaj Sebi Sangha" }, "geometry": { "type": "Point", "coordinates": [ 88.357719, 22.515591, 0.0 ] } },
{ "type": "Feature", "properties": { "Name": "Sodepur Pragati Sangha (Haridevpur)", "description": "Durga puja of Sodepur Pragati Sangha (Haridevpur)" }, "geometry": { "type": "Point", "coordinates": [ 88.331619, 22.481165, 0.0 ] } },
{ "type": "Feature", "properties": { "Name": "Santoshpur Sonar Tori Durgatsav", "description": "Durga puja of Santoshpur Sonar Tori Durgatsav" }, "geometry": { "type": "Point", "coordinates": [ 88.378548, 22.49184, 0.0 ] } },
{ "type": "Feature", "properties": { "Name": "Abasar Sarbojonin", "description": "Durga puja of Abasar Sarbojonin" }, "geometry": { "type": "Point", "coordinates": [ 88.3489, 22.527561, 0.0 ] } },
{ "type": "Feature", "properties": { "Name": "Goal Math", "description": "Durga puja of Goal Math" }, "geometry": { "type": "Point", "coordinates": [ 88.349045, 22.526709, 0.0 ] } },
{ "type": "Feature", "properties": { "Name": "Barisha Netaji Sangha", "description": "Durga puja of Barisha Netaji Sangha" }, "geometry": { "type": "Point", "coordinates": [ 88.314629, 22.48385, 0.0 ] } },
{ "type": "Feature", "properties": { "Name": "Behala Buroshibtala Janakalyan Sangha", "description": "Durga puja of Behala Buroshibtala Janakalyan Sangha" }, "geometry": { "type": "Point", "coordinates": [ 88.329735, 22.502289, 0.0 ] } },
{ "type": "Feature", "properties": { "Name": "Jogajatri Club", "description": "Durga puja of Jogajatri Club" }, "geometry": { "type": "Point", "coordinates": [ 88.331284, 22.501614, 0.0 ] } },
{ "type": "Feature", "properties": { "Name": "Surya Nagar Sarbojanin", "description": "Durga puja of Surya Nagar Sarbojanin" }, "geometry": { "type": "Point", "coordinates": [ 88.359344, 22.47489, 0.0 ] } },
{ "type": "Feature", "properties": { "Name": "Udayan Sangha", "description": "Durga puja of Udayan Sangha" }, "geometry": { "type": "Point", "coordinates": [ 88.387711, 22.501814, 0.0 ] } },
{ "type": "Feature", "properties": { "Name": "Uttar Panchanan Gram Milan", "description": "Durga puja of Uttar Panchanan Gram Milan" }, "geometry": { "type": "Point", "coordinates": [ 88.396339, 22.532141, 0.0 ] } },
{ "type": "Feature", "properties": { "Name": "Golden Arrow Club", "description": "Durga puja of Golden Arrow Club" }, "geometry": { "type": "Point", "coordinates": [ 88.34758, 22.516293, 0.0 ] } },
{ "type": "Feature", "properties": { "Name": "Purbachal Shakti Sangha", "description": "Durga puja of Purbachal Shakti Sangha" }, "geometry": { "type": "Point", "coordinates": [ 88.389214, 22.505142, 0.0 ] } },
{ "type": "Feature", "properties": { "Name": "Naskarpur Sarbojanin", "description": "Durga puja of Naskarpur Sarbojanin" }, "geometry": { "type": "Point", "coordinates": [ 88.312065, 22.506571, 0.0 ] } },
{ "type": "Feature", "properties": { "Name": "Kolkata", "description": "Durga puja of Kolkata" }, "geometry": { "type": "Point", "coordinates": [ 88.350845, 22.56472, 0.0 ] } },
{ "type": "Feature", "properties": { "Name": "64 Pally", "description": "Durga puja of 64 Pally" }, "geometry": { "type": "Point", "coordinates": [ 88.346512, 22.526789, 0.0 ] } },
{ "type": "Feature", "properties": { "Name": "95 Pally", "description": "Durga puja of 95 Pally" }, "geometry": { "type": "Point", "coordinates": [ 88.362953, 22.507622, 0.0 ] } },
{ "type": "Feature", "properties": { "Name": "Bandhab Sammilani", "description": "Durga puja of Bandhab Sammilani" }, "geometry": { "type": "Point", "coordinates": [ 88.367661, 22.507818, 0.0 ] } },
{ "type": "Feature", "properties": { "Name": "The Bengal Boys Training Association", "description": "Durga puja of The Bengal Boys Training Association" }, "geometry": { "type": "Point", "coordinates": [ 88.341179, 22.517557, 0.0 ] } },
{ "type": "Feature", "properties": { "Name": "Nepal Bhattacharjee Street", "description": "Durga puja of Nepal Bhattacharjee Street" }, "geometry": { "type": "Point", "coordinates": [ 88.341049, 22.517784, 0.0 ] } },
{ "type": "Feature", "properties": { "Name": "Roynagar Unnayan Samity", "description": "Durga puja of Roynagar Unnayan Samity" }, "geometry": { "type": "Point", "coordinates": [ 88.360176, 22.47242, 0.0 ] } },
{ "type": "Feature", "properties": { "Name": "Shyamapally Shyama Sangha", "description": "Durga puja of Shyamapally Shyama Sangha" }, "geometry": { "type": "Point", "coordinates": [ 88.37159, 22.49152, 0.0 ] } },
{ "type": "Feature", "properties": { "Name": "Garia Sreerampur Kalyan Samity", "description": "Durga puja of Garia Sreerampur Kalyan Samity" }, "geometry": { "type": "Point", "coordinates": [ 88.38044, 22.466888, 0.0 ] } },
{ "type": "Feature", "properties": { "Name": "Bhowanipur Swadhin Sangha", "description": "Durga puja of Bhowanipur Swadhin Sangha" }, "geometry": { "type": "Point", "coordinates": [ 88.346237, 22.531992, 0.0 ] } },
{ "type": "Feature", "properties": { "Name": "Dakshin Phalguni Club", "description": "Durga puja of Dakshin Phalguni Club" }, "geometry": { "type": "Point", "coordinates": [ 88.379921, 22.470131, 0.0 ] } },
{ "type": "Feature", "properties": { "Name": "Garia Pancha Durga", "description": "Durga puja of Garia Pancha Durga" }, "geometry": { "type": "Point", "coordinates": [ 88.378166, 22.461643, 0.0 ] } },
{ "type": "Feature", "properties": { "Name": "Garia Sabuj Dal", "description": "Durga puja of Garia Sabuj Dal" }, "geometry": { "type": "Point", "coordinates": [ 88.381599, 22.469654, 0.0 ] } },
{ "type": "Feature", "properties": { "Name": "Harish Park Puja", "description": "Durga puja of Harish Park Puja" }, "geometry": { "type": "Point", "coordinates": [ 88.343681, 22.530655, 0.0 ] } },
{ "type": "Feature", "properties": { "Name": "Jatra Suru Sangha", "description": "Durga puja of Jatra Suru Sangha" }, "geometry": { "type": "Point", "coordinates": [ 88.37793, 22.470646, 0.0 ] } },
{ "type": "Feature", "properties": { "Name": "Judge Bagan Recreation Club", "description": "Durga puja of Judge Bagan Recreation Club" }, "geometry": { "type": "Point", "coordinates": [ 88.338959, 22.477327, 0.0 ] } },
{ "type": "Feature", "properties": { "Name": "Green Avenue Sarbojanin", "description": "Durga puja of Green Avenue Sarbojanin" }, "geometry": { "type": "Point", "coordinates": [ 88.380264, 22.494051, 0.0 ] } },
{ "type": "Feature", "properties": { "Name": "Rupchand Mukherjee Lane Sarbojanin", "description": "Durga puja of Rupchand Mukherjee Lane Sarbojanin" }, "geometry": { "type": "Point", "coordinates": [ 88.344948, 22.527273, 0.0 ] } },
{ "type": "Feature", "properties": { "Name": "Santoshpur Agragami", "description": "Durga puja of Santoshpur Agragami" }, "geometry": { "type": "Point", "coordinates": [ 88.377991, 22.494265, 0.0 ] } },
{ "type": "Feature", "properties": { "Name": "Santoshpur Bibekananda Sangha", "description": "Durga puja of Santoshpur Bibekananda Sangha" }, "geometry": { "type": "Point", "coordinates": [ 88.383392, 22.493908, 0.0 ] } },
{ "type": "Feature", "properties": { "Name": "Lake Pally Sarbojanin", "description": "Durga puja of Lake Pally Sarbojanin" }, "geometry": { "type": "Point", "coordinates": [ 88.346237, 22.507259, 0.0 ] } },
{ "type": "Feature", "properties": { "Name": "Golfgreen Phase 1", "description": "Durga puja of Golfgreen Phase 1" }, "geometry": { "type": "Point", "coordinates": [ 88.362274, 22.493393, 0.0 ] } },
{ "type": "Feature", "properties": { "Name": "19 Pally", "description": "Durga puja of 19 Pally" }, "geometry": { "type": "Point", "coordinates": [ 88.3675, 22.512735, 0.0 ] } },
{ "type": "Feature", "properties": { "Name": "68 Pally", "description": "Durga puja of 68 Pally" }, "geometry": { "type": "Point", "coordinates": [ 88.346184, 22.527443, 0.0 ] } },
{ "type": "Feature", "properties": { "Name": "77 Palli", "description": "Durga puja of 77 Palli" }, "geometry": { "type": "Point", "coordinates": [ 88.367607, 22.504271, 0.0 ] } },
{ "type": "Feature", "properties": { "Name": "Abasarika Club", "description": "Durga puja of Abasarika Club" }, "geometry": { "type": "Point", "coordinates": [ 88.369278, 22.508394, 0.0 ] } },
{ "type": "Feature", "properties": { "Name": "Bakul Bagan Sarbojanin", "description": "Durga puja of Bakul Bagan Sarbojanin" }, "geometry": { "type": "Point", "coordinates": [ 88.347397, 22.52673, 0.0 ] } },
{ "type": "Feature", "properties": { "Name": "Haridevpur Adarsha Samiti", "description": "Durga puja of Haridevpur Adarsha Samiti" }, "geometry": { "type": "Point", "coordinates": [ 88.336937, 22.475842, 0.0 ] } },
{ "type": "Feature", "properties": { "Name": "Hindustan Club", "description": "Durga puja of Hindustan Club" }, "geometry": { "type": "Point", "coordinates": [ 88.361259, 22.520149, 0.0 ] } },
{ "type": "Feature", "properties": { "Name": "Manoharpukur Youngs", "description": "Durga puja of Bakul Bagan Sarbojanin" }, "geometry": { "type": "Point", "coordinates": [ 88.347397, 22.52673, 0.0 ] } },
{ "type": "Feature", "properties": { "Name": "Haridevpur Adarsha Samiti", "description": "Durga puja of Haridevpur Adarsha Samiti" }, "geometry": { "type": "Point", "coordinates": [ 88.336937, 22.475842, 0.0 ] } },
{ "type": "Feature", "properties": { "Name": "Hindustan Club", "description": "Durga puja of Hindustan Club" }, "geometry": { "type": "Point", "coordinates": [ 88.361259, 22.520149, 0.0 ] } },
{ "type": "Feature", "properties": { "Name": "Manoharpukur Youngs", "description": "Durga puja of Manoharpukur Youngs" }, "geometry": { "type": "Point", "coordinates": [ 88.356216, 22.518682, 0.0 ] } },
{ "type": "Feature", "properties": { "Name": "Padmapukur Youth Association", "description": "Durga puja of Padmapukur Youth Association" }, "geometry": { "type": "Point", "coordinates": [ 88.352341, 22.531614, 0.0 ] } },
{ "type": "Feature", "properties": { "Name": "Padmapukur Baroyari", "description": "Durga puja of Padmapukur Baroyari" }, "geometry": { "type": "Point", "coordinates": [ 88.354294, 22.531862, 0.0 ] } },
{ "type": "Feature", "properties": { "Name": "Park Circus - Uddipani", "description": "Durga puja of Park Circus - Uddipani" }, "geometry": { "type": "Point", "coordinates": [ 88.370056, 22.544149, 0.0 ] } },
{ "type": "Feature", "properties": { "Name": "Triangular Park Sarbojanin", "description": "Durga puja of Triangular Park Sarbojanin" }, "geometry": { "type": "Point", "coordinates": [ 88.357964, 22.517979, 0.0 ] } },
{ "type": "Feature", "properties": { "Name": "Sitalatala Kishore Sangha", "description": "Durga puja of Sitalatala Kishore Sangha" }, "geometry": { "type": "Point", "coordinates": [ 88.322479, 22.481987, 0.0 ] } },
{ "type": "Feature", "properties": { "Name": "Prasanta Disha Sarbojanin", "description": "Durga puja of Prasanta Disha Sarbojanin" }, "geometry": { "type": "Point", "coordinates": [ 88.327644, 22.499216, 0.0 ] } },
{ "type": "Feature", "properties": { "Name": "Barisha Yubak Brinda", "description": "Durga puja of Barisha Yubak Brinda" }, "geometry": { "type": "Point", "coordinates": [ 88.306541, 22.484386, 0.0 ] } },
{ "type": "Feature", "properties": { "Name": "Aikya Sammilani", "description": "Durga puja of Aikya Sammilani" }, "geometry": { "type": "Point", "coordinates": [ 88.318611, 22.504429, 0.0 ] } }
]
}
