{
"type": "FeatureCollection",
"name": "Salt Lake",
"features": [
{ "type": "Feature", "properties": { "Name": "FD Block" }, "geometry": { "type": "Point", "coordinates": [ 88.4131218, 22.5830181, 0.0 ] } },
{ "type": "Feature", "properties": { "Name": "AK Block" }, "geometry": { "type": "Point", "coordinates": [ 88.4313014, 22.5891537, 0.0 ] } },
{ "type": "Feature", "properties": { "Name": "AE Block" }, "geometry": { "type": "Point", "coordinates": [ 88.4119096, 22.6008801, 0.0 ] } },
{ "type": "Feature", "properties": { "Name": "AJ Block" }, "geometry": { "type": "Point", "coordinates": [ 88.4288779, 22.5921092, 0.0 ] } },
{ "type": "Feature", "properties": { "Name": "AA Block" }, "geometry": { "type": "Point", "coordinates": [ 88.39736, 22.5917995, 0.0 ] } },
{ "type": "Feature", "properties": { "Name": "AB Block" }, "geometry": { "type": "Point", "coordinates": [ 88.3997852, 22.593313, 0.0 ] } },
{ "type": "Feature", "properties": { "Name": "AC Block" }, "geometry": { "type": "Point", "coordinates": [ 88.4034229, 22.5948385, 0.0 ] } },
{ "type": "Feature", "properties": { "Name": "AD Block" }, "geometry": { "type": "Point", "coordinates": [ 88.4058478, 22.5978414, 0.0 ] } },
{ "type": "Feature", "properties": { "Name": "AG Block" }, "geometry": { "type": "Point", "coordinates": [ 88.4240305, 22.5995094, 0.0 ] } },
{ "type": "Feature", "properties": { "Name": "AH Block" }, "geometry": { "type": "Point", "coordinates": [ 88.4264543, 22.5965541, 0.0 ] } },
{ "type": "Feature", "properties": { "Name": "AL Block" }, "geometry": { "type": "Point", "coordinates": [ 88.4337248, 22.5861982, 0.0 ] } },
{ "type": "Feature", "properties": { "Name": "BA Block" }, "geometry": { "type": "Point", "coordinates": [ 88.3985726, 22.5888325, 0.0 ] } },
{ "type": "Feature", "properties": { "Name": "BB Block" }, "geometry": { "type": "Point", "coordinates": [ 88.4022104, 22.5918475, 0.0 ] } },
{ "type": "Feature", "properties": { "Name": "BC Block" }, "geometry": { "type": "Point", "coordinates": [ 88.4043323, 22.5929856, 0.0 ] } },
{ "type": "Feature", "properties": { "Name": "BD Block" }, "geometry": { "type": "Point", "coordinates": [ 88.4082726, 22.5948864, 0.0 ] } },
{ "type": "Feature", "properties": { "Name": "BE Block" }, "geometry": { "type": "Point", "coordinates": [ 88.4131218, 22.5979131, 0.0 ] } },
{ "type": "Feature", "properties": { "Name": "BG Block" }, "geometry": { "type": "Point", "coordinates": [ 88.4225156, 22.5953985, 0.0 ] } },
{ "type": "Feature", "properties": { "Name": "BH Block" }, "geometry": { "type": "Point", "coordinates": [ 88.4243335, 22.5939268, 0.0 ] } },
{ "type": "Feature", "properties": { "Name": "BJ Block" }, "geometry": { "type": "Point", "coordinates": [ 88.4264406, 22.5912327, 0.0 ] } },
{ "type": "Feature", "properties": { "Name": "BK Block" }, "geometry": { "type": "Point", "coordinates": [ 88.4288779, 22.5876407, 0.0 ] } },
{ "type": "Feature", "properties": { "Name": "BL Block" }, "geometry": { "type": "Point", "coordinates": [ 88.4313014, 22.5846852, 0.0 ] } },
{ "type": "Feature", "properties": { "Name": "CA Block" }, "geometry": { "type": "Point", "coordinates": [ 88.4006947, 22.5869917, 0.0 ] } },
{ "type": "Feature", "properties": { "Name": "CB Block" }, "geometry": { "type": "Point", "coordinates": [ 88.4034229, 22.5888806, 0.0 ] } },
{ "type": "Feature", "properties": { "Name": "CD Block" }, "geometry": { "type": "Point", "coordinates": [ 88.409485, 22.5919194, 0.0 ] } },
{ "type": "Feature", "properties": { "Name": "CE Block" }, "geometry": { "type": "Point", "coordinates": [ 88.4131218, 22.5949341, 0.0 ] } },
{ "type": "Feature", "properties": { "Name": "LABONY ESTATE" }, "geometry": { "type": "Point", "coordinates": [ 88.4069754, 22.583099, 0.0 ] } },
{ "type": "Feature", "properties": { "Name": "JC Block" }, "geometry": { "type": "Point", "coordinates": [ 88.4131218, 22.5696125, 0.0 ] } },
{ "type": "Feature", "properties": { "Name": "IB Block" }, "geometry": { "type": "Point", "coordinates": [ 88.4146371, 22.572234, 0.0 ] } },
{ "type": "Feature", "properties": { "Name": "IA Block" }, "geometry": { "type": "Point", "coordinates": [ 88.4106973, 22.5725677, 0.0 ] } },
{ "type": "Feature", "properties": { "Name": "HB Block" }, "geometry": { "type": "Point", "coordinates": [ 88.4155462, 22.5741049, 0.0 ] } },
{ "type": "Feature", "properties": { "Name": "HA Block" }, "geometry": { "type": "Point", "coordinates": [ 88.4119096, 22.5755587, 0.0 ] } },
{ "type": "Feature", "properties": { "Name": "GD Block" }, "geometry": { "type": "Point", "coordinates": [ 88.4167583, 22.5770958, 0.0 ] } },
{ "type": "Feature", "properties": { "Name": "GC Block" }, "geometry": { "type": "Point", "coordinates": [ 88.4119096, 22.5785377, 0.0 ] } },
{ "type": "Feature", "properties": { "Name": "FE Block" }, "geometry": { "type": "Point", "coordinates": [ 88.4179705, 22.5815762, 0.0 ] } },
{ "type": "Feature", "properties": { "Name": "FC Block" }, "geometry": { "type": "Point", "coordinates": [ 88.409485, 22.5800034, 0.0 ] } },
{ "type": "Feature", "properties": { "Name": "EE Block" }, "geometry": { "type": "Point", "coordinates": [ 88.4240305, 22.5801459, 0.0 ] } },
{ "type": "Feature", "properties": { "Name": "EC Market" }, "geometry": { "type": "Point", "coordinates": [ 88.4092955, 22.5852613, 0.0 ] } },
{ "type": "Feature", "properties": { "Name": "DL Block" }, "geometry": { "type": "Point", "coordinates": [ 88.4261513, 22.5812837, 0.0 ] } },
{ "type": "Feature", "properties": { "Name": "DB Block" }, "geometry": { "type": "Point", "coordinates": [ 88.4049385, 22.5862889, 0.0 ] } },
{ "type": "Feature", "properties": { "Name": "DA Block" }, "geometry": { "type": "Point", "coordinates": [ 88.4019072, 22.5847695, 0.0 ] } },
{ "type": "Feature", "properties": { "Name": "CJ Block" }, "geometry": { "type": "Point", "coordinates": [ 88.4243333, 22.5895296, 0.0 ] } },
{ "type": "Feature", "properties": { "Name": "CG Block" }, "geometry": { "type": "Point", "coordinates": [ 88.4216066, 22.5920383, 0.0 ] } }
]
}
