{
"type": "FeatureCollection",
"name": "South Kolkata r Pujo",
"features": [
{ "type": "Feature", "properties": { "Name": "Badamtala Ashar Sangha", "a thought struck us": null }, "geometry": { "type": "Point", "coordinates": [ 88.3437184, 22.5179743, 0.0 ] } },
{ "type": "Feature", "properties": { "Name": "66 Pally Durga Puja Pandal", "a thought struck us": null }, "geometry": { "type": "Point", "coordinates": [ 88.3427029, 22.5181372, 0.0 ] } },
{ "type": "Feature", "properties": { "Name": "Nepal Bhattacharjee Street", "a thought struck us": null }, "geometry": { "type": "Point", "coordinates": [ 88.3426217, 22.5180222, 0.0 ] } },
{ "type": "Feature", "properties": { "Name": "Chetla Agrani Club", "a thought struck us": null }, "geometry": { "type": "Point", "coordinates": [ 88.337091, 22.5164325, 0.0 ] } },
{ "type": "Feature", "properties": { "Name": "Deshapriya Park", "a thought struck us": null }, "geometry": { "type": "Point", "coordinates": [ 88.3534607, 22.5185819, 0.0 ] } },
{ "type": "Feature", "properties": { "Name": "Samaj Sebi Sangha", "a thought struck us": null }, "geometry": { "type": "Point", "coordinates": [ 88.3559608, 22.5155625, 0.0 ] } },
{ "type": "Feature", "properties": { "Name": "Ballygunge Cultural Association", "a thought struck us": null }, "geometry": { "type": "Point", "coordinates": [ 88.3557435, 22.5159227, 0.0 ] } },
{ "type": "Feature", "properties": { "Name": "Tridhara Sammilani", "a thought struck us": null }, "geometry": { "type": "Point", "coordinates": [ 88.3554347, 22.5193983, 0.0 ] } },
{ "type": "Feature", "properties": { "Name": "Hindustan Park Sarbojanin Durga Puja", "a thought struck us": null }, "geometry": { "type": "Point", "coordinates": [ 88.3614231, 22.5179755, 0.0 ] } },
{ "type": "Feature", "properties": { "Name": "Singhi Park Sarbojanin Durga Puja Committee", "a thought struck us": null }, "geometry": { "type": "Point", "coordinates": [ 88.3631452, 22.5208433, 0.0 ] } },
{ "type": "Feature", "properties": { "Name": "Ekdalia Evergreen Club", "a thought struck us": null }, "geometry": { "type": "Point", "coordinates": [ 88.3665629, 22.5212187, 0.0 ] } },
{ "type": "Feature", "properties": { "Name": "Falguni Sangha", "a thought struck us": null }, "geometry": { "type": "Point", "coordinates": [ 88.3656673, 22.5220333, 0.0 ] } },
{ "type": "Feature", "properties": { "Name": "Ballygunge 21 Pally", "a thought struck us": null }, "geometry": { "type": "Point", "coordinates": [ 88.3688163, 22.529175, 0.0 ] } },
{ "type": "Feature", "properties": { "Name": "Bosepukur Sitala Mandir", "a thought struck us": null }, "geometry": { "type": "Point", "coordinates": [ 88.3848576, 22.5192181, 0.0 ] } },
{ "type": "Feature", "properties": { "Name": "Bosepukur Talbagan Sarbojanin Durga Puja Pandal", "a thought struck us": null }, "geometry": { "type": "Point", "coordinates": [ 88.3826451, 22.5187427, 0.0 ] } },
{ "type": "Feature", "properties": { "Name": "Rajdanga Naba Uday Sangha", "a thought struck us": null }, "geometry": { "type": "Point", "coordinates": [ 88.3902285, 22.5166272, 0.0 ] } },
{ "type": "Feature", "properties": { "Name": "Babubagan Club", "a thought struck us": null }, "geometry": { "type": "Point", "coordinates": [ 88.3690351, 22.5079097, 0.0 ] } },
{ "type": "Feature", "properties": { "Name": "Selimpur Pally Durga Puja Pandal", "a thought struck us": null }, "geometry": { "type": "Point", "coordinates": [ 88.3678466, 22.5048712, 0.0 ] } },
{ "type": "Feature", "properties": { "Name": "Jodhpur Park", "a thought struck us": null }, "geometry": { "type": "Point", "coordinates": [ 88.3639986, 22.5058175, 0.0 ] } },
{ "type": "Feature", "properties": { "Name": "95 Pally Association", "a thought struck us": null }, "geometry": { "type": "Point", "coordinates": [ 88.3629194, 22.5083339, 0.0 ] } },
{ "type": "Feature", "properties": { "Name": "Trikon Park Durgotsab ত্রিকোণ পার্ক দূর্গোৎসব", "a thought struck us": null }, "geometry": { "type": "Point", "coordinates": [ 88.3784275, 22.493162, 0.0 ] } },
{ "type": "Feature", "properties": { "Name": "Pally Mangal Samity", "a thought struck us": null }, "geometry": { "type": "Point", "coordinates": [ 88.3744596, 22.5049158, 0.0 ] } },
{ "type": "Feature", "properties": { "Name": "SANTOSHPUR LAKE PALLY", "a thought struck us": null }, "geometry": { "type": "Point", "coordinates": [ 88.3826648, 22.4914216, 0.0 ] } },
{ "type": "Feature", "properties": { "Name": "Mudiali Club", "a thought struck us": null }, "geometry": { "type": "Point", "coordinates": [ 88.346783, 22.509985, 0.0 ] } },
{ "type": "Feature", "properties": { "Name": "Suruchi Sangha", "a thought struck us": null }, "geometry": { "type": "Point", "coordinates": [ 88.333942, 22.5090531, 0.0 ] } },
{ "type": "Feature", "properties": { "Name": "Hindustan Club", "a thought struck us": null }, "geometry": { "type": "Point", "coordinates": [ 88.3371126, 22.5039723, 0.0 ] } },
{ "type": "Feature", "properties": { "Name": "Behala Club Sarbojanin Durgotsav Committee", "a thought struck us": null }, "geometry": { "type": "Point", "coordinates": [ 88.3141052, 22.505119, 0.0 ] } },
{ "type": "Feature", "properties": { "Name": "BARISHA SARBOJANIN DURGOTSAB", "a thought struck us": null }, "geometry": { "type": "Point", "coordinates": [ 88.3078724, 22.4798221, 0.0 ] } },
{ "type": "Feature", "properties": { "Name": "Raipur Club : Durga Puja Organisers in Kolkata", "a thought struck us": null }, "geometry": { "type": "Point", "coordinates": [ 88.3780502, 22.4745148, 0.0 ] } },
{ "type": "Feature", "properties": { "Name": "Naktala Udayan Sangha club", "a thought struck us": null }, "geometry": { "type": "Point", "coordinates": [ 88.3667911, 22.4747012, 0.0 ] } },
{ "type": "Feature", "properties": { "Name": "Maddox Square Durga Puja", "a thought struck us": "What if we could preserve these masterpieces? What if we could ensure that they were created sustainably, without compromising the environment? And thus, with a mission to blend art with architecture, and a commitment to eco-friendliness, The Pujo Company" }, "geometry": { "type": "Point", "coordinates": [ 88.3546477, 22.5265634, 0.0 ] } },
{ "type": "Feature", "properties": { "Name": "11 Pally Club", "a thought struck us": null }, "geometry": { "type": "Point", "coordinates": [ 88.3214501, 22.4985408, 0.0 ] } }
]
}
